[
    {
        "Altitude(m)": 558590.440255028,
        "Argument of Periapsis(deg)": 0.026491964442854003,
        "Eccentricity": 0.0,
        "Inclination(deg)": 53.0,
        "Latitude(deg)": 47.408532530876066,
        "Longitude(deg)": -137.79548313327257,
        "Mean Anomaly(deg)": 113.09367147031034,
        "RAAN(deg)": 199.96057347411207,
        "Satellite Name": "Starlink Shell 1 884",
        "Satellite Number": 884,
        "Semi-Major Axis(m)": 6931778.249405717,
        "Time(s)": 760
    },
    {
        "Altitude(m)": 558523.6270774315,
        "Argument of Periapsis(deg)": 0.02684054292236524,
        "Eccentricity": 0.0,
        "Inclination(deg)": 53.0,
        "Latitude(deg)": 47.11533413375308,
        "Longitude(deg)": -137.02208993228487,
        "Mean Anomaly(deg)": 113.72050267386703,
        "RAAN(deg)": 199.9600547040346,
        "Satellite Name": "Starlink Shell 1 884",
        "Satellite Number": 884,
        "Semi-Major Axis(m)": 6931778.249405717,
        "Time(s)": 770
    },
    {
        "Altitude(m)": 558455.5833505215,
        "Argument of Periapsis(deg)": 0.027189121401876473,
        "Eccentricity": 0.0,
        "Inclination(deg)": 53.0,
        "Latitude(deg)": 46.8163915068433,
        "Longitude(deg)": -136.25767603997443,
        "Mean Anomaly(deg)": 114.34733387742374,
        "RAAN(deg)": 199.95953593395714,
        "Satellite Name": "Starlink Shell 1 884",
        "Satellite Number": 884,
        "Semi-Major Axis(m)": 6931778.249405717,
        "Time(s)": 780
    },
    {
        "Altitude(m)": 558386.3511568079,
        "Argument of Periapsis(deg)": 0.02753769988138771,
        "Eccentricity": 0.0,
        "Inclination(deg)": 53.0,
        "Latitude(deg)": 46.511825886970605,
        "Longitude(deg)": -135.50221766649614,
        "Mean Anomaly(deg)": 114.97416508098054,
        "RAAN(deg)": 199.95901716387965,
        "Satellite Name": "Starlink Shell 1 884",
        "Satellite Number": 884,
        "Semi-Major Axis(m)": 6931778.249405717,
        "Time(s)": 790
    },
    {
        "Altitude(m)": 558315.9733867743,
        "Argument of Periapsis(deg)": 0.02788627836089895,
        "Eccentricity": 0.0,
        "Inclination(deg)": 53.0,
        "Latitude(deg)": 46.20175744570499,
        "Longitude(deg)": -134.75568241206324,
        "Mean Anomaly(deg)": 115.60099628453722,
        "RAAN(deg)": 199.95849839380216,
        "Satellite Name": "Starlink Shell 1 884",
        "Satellite Number": 884,
        "Semi-Major Axis(m)": 6931778.249405717,
        "Time(s)": 800
    },
    {
        "Altitude(m)": 558244.4937175816,
        "Argument of Periapsis(deg)": 0.02823485684041019,
        "Eccentricity": 0.0,
        "Inclination(deg)": 53.0,
        "Latitude(deg)": 45.886305177460876,
        "Longitude(deg)": -134.0180293115595,
        "Mean Anomaly(deg)": 116.22782748809392,
        "RAAN(deg)": 199.9579796237247,
        "Satellite Name": "Starlink Shell 1 884",
        "Satellite Number": 884,
        "Semi-Major Axis(m)": 6931778.249405717,
        "Time(s)": 810
    },
    {
        "Altitude(m)": 558171.9565913505,
        "Argument of Periapsis(deg)": 0.028583435319921423,
        "Eccentricity": 0.0,
        "Inclination(deg)": 53.0,
        "Latitude(deg)": 45.565586797711944,
        "Longitude(deg)": -133.28920887070961,
        "Mean Anomaly(deg)": 116.85465869165057,
        "RAAN(deg)": 199.9574608536472,
        "Satellite Name": "Starlink Shell 1 884",
        "Satellite Number": 884,
        "Semi-Major Axis(m)": 6931778.249405717,
        "Time(s)": 820
    },
    {
        "Altitude(m)": 558098.4071930582,
        "Argument of Periapsis(deg)": 0.028932013799432665,
        "Eccentricity": 0.0,
        "Inclination(deg)": 53.0,
        "Latitude(deg)": 45.239718650979526,
        "Longitude(deg)": -132.5691646046178,
        "Mean Anomaly(deg)": 117.48148989520733,
        "RAAN(deg)": 199.95694208356974,
        "Satellite Name": "Starlink Shell 1 884",
        "Satellite Number": 884,
        "Semi-Major Axis(m)": 6931778.249405717,
        "Time(s)": 830
    },
    {
        "Altitude(m)": 558023.8914280322,
        "Argument of Periapsis(deg)": 0.029280592278943897,
        "Eccentricity": 0.0,
        "Inclination(deg)": 53.0,
        "Latitude(deg)": 44.908815628220026,
        "Longitude(deg)": -131.85783305114379,
        "Mean Anomaly(deg)": 118.10832109876412,
        "RAAN(deg)": 199.9564233134923,
        "Satellite Name": "Starlink Shell 1 884",
        "Satellite Number": 884,
        "Semi-Major Axis(m)": 6931778.249405717,
        "Time(s)": 840
    },
    {
        "Altitude(m)": 557948.4558990722,
        "Argument of Periapsis(deg)": 0.029629170758455132,
        "Eccentricity": 0.0,
        "Inclination(deg)": 53.0,
        "Latitude(deg)": 44.57299109322054,
        "Longitude(deg)": -131.15514377045082,
        "Mean Anomaly(deg)": 118.73515230232077,
        "RAAN(deg)": 199.95590454341482,
        "Satellite Name": "Starlink Shell 1 884",
        "Satellite Number": 884,
        "Semi-Major Axis(m)": 6931778.249405717,
        "Time(s)": 850
    },
    {
        "Altitude(m)": 557872.1478831879,
        "Argument of Periapsis(deg)": 0.02997774923796637,
        "Eccentricity": 0.0,
        "Inclination(deg)": 53.0,
        "Latitude(deg)": 44.23235681759817,
        "Longitude(deg)": -130.46102101040478,
        "Mean Anomaly(deg)": 119.36198350587748,
        "RAAN(deg)": 199.95538577333735,
        "Satellite Name": "Starlink Shell 1 884",
        "Satellite Number": 884,
        "Semi-Major Axis(m)": 6931778.249405717,
        "Time(s)": 860
    },
    {
        "Altitude(m)": 557795.0153079806,
        "Argument of Periapsis(deg)": 0.030326327717477602,
        "Eccentricity": 0.0,
        "Inclination(deg)": 53.0,
        "Latitude(deg)": 43.887022923978606,
        "Longitude(deg)": -129.77538283433992,
        "Mean Anomaly(deg)": 119.98881470943415,
        "RAAN(deg)": 199.9548670032599,
        "Satellite Name": "Starlink Shell 1 884",
        "Satellite Number": 884,
        "Semi-Major Axis(m)": 6931778.249405717,
        "Time(s)": 870
    },
    {
        "Altitude(m)": 557717.1067276776,
        "Argument of Periapsis(deg)": 0.030674906196988847,
        "Eccentricity": 0.0,
        "Inclination(deg)": 53.0,
        "Latitude(deg)": 43.5370978369349,
        "Longitude(deg)": -129.09814275324166,
        "Mean Anomaly(deg)": 120.61564591299096,
        "RAAN(deg)": 199.9543482331824,
        "Satellite Name": "Starlink Shell 1 884",
        "Satellite Number": 884,
        "Semi-Major Axis(m)": 6931778.249405717,
        "Time(s)": 880
    },
    {
        "Altitude(m)": 557638.4712988129,
        "Argument of Periapsis(deg)": 0.031023484676500086,
        "Eccentricity": 0.0,
        "Inclination(deg)": 53.0,
        "Latitude(deg)": 43.18268824125426,
        "Longitude(deg)": -128.4292096592696,
        "Mean Anomaly(deg)": 121.24247711654766,
        "RAAN(deg)": 199.95382946310494,
        "Satellite Name": "Starlink Shell 1 884",
        "Satellite Number": 884,
        "Semi-Major Axis(m)": 6931778.249405717,
        "Time(s)": 890
    },
    {
        "Altitude(m)": 557559.1587556048,
        "Argument of Periapsis(deg)": 0.03137206315601132,
        "Eccentricity": 0.0,
        "Inclination(deg)": 53.0,
        "Latitude(deg)": 42.82389904710616,
        "Longitude(deg)": -127.76848774110823,
        "Mean Anomaly(deg)": 121.86930832010435,
        "RAAN(deg)": 199.95331069302745,
        "Satellite Name": "Starlink Shell 1 884",
        "Satellite Number": 884,
        "Semi-Major Axis(m)": 6931778.249405717,
        "Time(s)": 900
    },
    {
        "Altitude(m)": 557479.2193849761,
        "Argument of Periapsis(deg)": 0.03172064163552255,
        "Eccentricity": 0.0,
        "Inclination(deg)": 53.0,
        "Latitude(deg)": 42.460833361691414,
        "Longitude(deg)": -127.11587789370114,
        "Mean Anomaly(deg)": 122.49613952366104,
        "RAAN(deg)": 199.95279192294998,
        "Satellite Name": "Starlink Shell 1 884",
        "Satellite Number": 884,
        "Semi-Major Axis(m)": 6931778.249405717,
        "Time(s)": 910
    },
    {
        "Altitude(m)": 557398.7040013059,
        "Argument of Periapsis(deg)": 0.0320692201150338,
        "Eccentricity": 0.0,
        "Inclination(deg)": 53.0,
        "Latitude(deg)": 42.09359246695079,
        "Longitude(deg)": -126.47127759645349,
        "Mean Anomaly(deg)": 123.12297072721778,
        "RAAN(deg)": 199.9522731528725,
        "Satellite Name": "Starlink Shell 1 884",
        "Satellite Number": 884,
        "Semi-Major Axis(m)": 6931778.249405717,
        "Time(s)": 920
    },
    {
        "Altitude(m)": 557317.6639208599,
        "Argument of Periapsis(deg)": 0.032417798594545036,
        "Eccentricity": 0.0,
        "Inclination(deg)": 53.0,
        "Latitude(deg)": 41.72227580292607,
        "Longitude(deg)": -125.83458077273626,
        "Mean Anomaly(deg)": 123.74980193077454,
        "RAAN(deg)": 199.95175438279503,
        "Satellite Name": "Starlink Shell 1 884",
        "Satellite Number": 884,
        "Semi-Major Axis(m)": 6931778.249405717,
        "Time(s)": 930
    },
    {
        "Altitude(m)": 557236.1509359437,
        "Argument of Periapsis(deg)": 0.03276637707405627,
        "Eccentricity": 0.0,
        "Inclination(deg)": 53.0,
        "Latitude(deg)": 41.346980956377614,
        "Longitude(deg)": -125.20567914363832,
        "Mean Anomaly(deg)": 124.37663313433123,
        "RAAN(deg)": 199.95123561271754,
        "Satellite Name": "Starlink Shell 1 884",
        "Satellite Number": 884,
        "Semi-Major Axis(m)": 6931778.249405717,
        "Time(s)": 940
    }
]